[{"OBJECT_NAME":"STARLINK-34715","OBJECT_ID":"2025-157AD","EPOCH":"2026-03-09T22:48:12.486528","MEAN_MOTION":15.30203571,"ECCENTRICITY":0.00015948,"INCLINATION":53.1591,"RA_OF_ASC_NODE":344.4666,"ARG_OF_PERICENTER":53.5366,"MEAN_ANOMALY":306.5781,"EPHEMERIS_TYPE":0,"CLASSIFICATION_TYPE":"U","NORAD_CAT_ID":64931,"ELEMENT_SET_NO":999,"REV_AT_EPOCH":3616,"BSTAR":0.00085337552,"MEAN_MOTION_DOT":0.00025003,"MEAN_MOTION_DDOT":0},{"OBJECT_NAME":"COSMOS 2535 DEB","OBJECT_ID":"2019-039M","EPOCH":"2026-03-08T03:25:35.903424","MEAN_MOTION":15.28322551,"ECCENTRICITY":0.0014917,"INCLINATION":97.5619,"RA_OF_ASC_NODE":139.2722,"ARG_OF_PERICENTER":329.0964,"MEAN_ANOMALY":30.9396,"EPHEMERIS_TYPE":0,"CLASSIFICATION_TYPE":"U","NORAD_CAT_ID":44641,"ELEMENT_SET_NO":999,"REV_AT_EPOCH":35167,"BSTAR":0.0011539757,"MEAN_MOTION_DOT":0.0003196,"MEAN_MOTION_DDOT":0}]
